APRIZESAT 2             
1 28366U 04025A   20109.54091983 -.00000018  00000-0  81338-5 0  9995
2 28366  98.2723   2.9665 0107469 186.2739 173.7109 14.36700445828391
SAUDICOMSAT 1           
1 28369U 04025D   20109.43784747  .00000044  00000-0  21901-4 0  9990
2 28369  98.3328  60.5877 0034858  77.5394 282.9698 14.52544412837159
SAUDICOMSAT 2           
1 28370U 04025E   20109.54162495  .00000017  00000-0  17006-4 0  9995
2 28370  98.4268  57.5009 0056747 237.1719 122.4001 14.47476815834354
APRIZESAT 1             
1 28372U 04025G   20109.38128042  .00000007  00000-0  13669-4 0  9999
2 28372  98.3864  58.5739 0046707 161.5526 198.7375 14.49622306835631
NANOSAT-1               
1 28493U 04049B   20109.52258504  .00000056  00000-0  16481-4 0  9991
2 28493  98.1174 199.2097 0003305 306.7337  53.3566 14.73567398823526
SAUDICOMSAT 7           
1 31119U 07012C   20109.41917645  .00000047  00000-0  18742-4 0  9991
2 31119  98.0912  56.5590 0061118  47.1965 313.4351 14.61778637693339
SAUDICOMSAT 6           
1 31121U 07012E   20109.55488792  .00000038  00000-0  17854-4 0  9998
2 31121  98.1445  51.4372 0077549 131.2169 229.5750 14.58578091691798
SAUDICOMSAT 5           
1 31124U 07012H   20109.44954718  .00000049  00000-0  18549-4 0  9999
2 31124  98.0558  59.2409 0051765   3.3385 356.8152 14.63480999694106
SAUDICOMSAT 3           
1 31125U 07012J   20109.44169805  .00000063  00000-0  20561-4 0  9998
2 31125  98.0178  62.0125 0042396 319.3788  40.4254 14.65237993694812
SAUDICOMSAT 4           
1 31127U 07012L   20109.37394969  .00000044  00000-0  18502-4 0  9994
2 31127  98.1185  54.3226 0069402  87.1407 273.7734 14.60292514692563
APRIZESAT 4             
1 35684U 09041D   20109.51190846  .00000047  00000-0  14006-4 0  9992
2 35684  98.2697  86.5616 0047344   7.0761 353.1108 14.79265913578271
APRIZESAT 3             
1 35686U 09041F   20109.39060102  .00000055  00000-0  12704-4 0  9993
2 35686  98.1894 164.4707 0071667 243.5410 115.8441 14.87376963581152
AISSAT 1                
1 36797U 10035C   20109.41783012  .00000141  00000-0  22606-4 0  9995
2 36797  98.1631 256.6181 0010394 213.2593 146.7969 14.86292639529078
S-NET D                 
1 43186U 18014G   20109.55013303  .00000428  00000-0  42434-4 0  9993
2 43186  97.6972  18.3509 0012405  68.7909 291.4637 14.96780555120736
S-NET B                 
1 43187U 18014H   20109.54995164  .00000421  00000-0  41787-4 0  9990
2 43187  97.6970  18.3310 0012410  68.7107 291.5438 14.96780400120730
S-NET A                 
1 43188U 18014J   20109.48296051  .00000410  00000-0  40856-4 0  9997
2 43188  97.6973  18.2925 0012378  68.9436 291.3109 14.96780059120727
S-NET C                 
1 43189U 18014K   20109.48335849  .00000427  00000-0  42353-4 0  9999
2 43189  97.6970  18.2611 0012402  68.9004 291.3543 14.96779591119275
